NORAD_CAT_ID,OBJECT_NAME,OBJECT_TYPE,EPOCH,MEAN_MOTION,ECCENTRICITY,INCLINATION,RA_OF_ASC_NODE,ARG_OF_PERICENTER,MEAN_ANOMALY,BSTAR,MEAN_MOTION_DOT,MEAN_MOTION_DDOT,TLE_LINE0,TLE_LINE1,TLE_LINE2,SEMIMAJOR_AXIS,PERIOD,APOGEE,PERIGEE,DECAYED
52372.0,STARLINK-3796,PAYLOAD,2024-05-03 20:09:09,15.08826378,0.0001258,53.2174,338.6427,95.3074,264.8062,-4.748e-05,-1.043e-05,0.0,0 STARLINK-3796,1 52372U 22045AT  24124.83969519 -.00001043  00000-0 -47480-4 0  9992,2 52372  53.2174 338.6427 0001258  95.3074 264.8062 15.08826378114035,6917.922,95.438,540.657,538.917,0.0
52372.0,STARLINK-3796,PAYLOAD,2024-05-03 21:44:32,15.08827031,0.0001284,53.2177,338.3437,87.6363,272.4776,-1.2399e-05,-4.85e-06,0.0,0 STARLINK-3796,1 52372U 22045AT  24124.90593442 -.00000485  00000-0 -12399-4 0  9998,2 52372  53.2177 338.3437 0001284  87.6363 272.4776 15.08827031114045,6917.92,95.438,540.673,538.897,0.0
52372.0,STARLINK-3796,PAYLOAD,2024-05-04 13:38:23,15.08840783,0.000127,53.2179,335.37,93.6661,266.4477,8.8324e-05,1.118e-05,0.0,0 STARLINK-3796,1 52372U 22045AT  24125.56832658  .00001118  00000-0  88324-4 0  9999,2 52372  53.2179 335.3700 0001270  93.6661 266.4477 15.08840783114141,6917.878,95.438,540.622,538.864,0.0
52372.0,STARLINK-3796,PAYLOAD,2024-05-04 21:35:18,15.08851589,0.000131,53.2179,333.8842,101.2863,258.8277,0.0001251,1.704e-05,0.0,0 STARLINK-3796,1 52372U 22045AT  24125.89951952  .00001704  00000-0  12510-3 0  9998,2 52372  53.2179 333.8842 0001310 101.2863 258.8277 15.08851589114190,6917.845,95.437,540.616,538.804,0.0
52372.0,STARLINK-3796,PAYLOAD,2024-05-05 13:29:09,15.0885663,0.0001158,53.2167,330.9107,92.4699,267.6426,-1.0619e-05,-4.57e-06,0.0,0 STARLINK-3796,1 52372U 22045AT  24126.56191480 -.00000457  00000-0 -10619-4 0  9990,2 52372  53.2167 330.9107 0001158  92.4699 267.6426 15.08856630114294,6917.83,95.437,540.496,538.893,0.0
52372.0,STARLINK-3796,PAYLOAD,2024-05-05 19:50:42,15.08847763,0.0001198,53.2166,329.7201,97.7899,262.3229,0.00029062,4.341e-05,0.0,0 STARLINK-3796,1 52372U 22045AT  24126.82688254  .00004341  00000-0  29062-3 0  9994,2 52372  53.2166 329.7201 0001198  97.7899 262.3229 15.08847763114333,6917.857,95.437,540.55,538.893,0.0
52372.0,STARLINK-3796,PAYLOAD,2024-05-06 06:58:23,15.08859077,0.0001201,53.2168,327.6382,97.2558,262.8571,0.00037473,5.684e-05,0.0,0 STARLINK-3796,1 52372U 22045AT  24127.29055510  .00005684  00000-0  37473-3 0  9995,2 52372  53.2168 327.6382 0001201  97.2558 262.8571 15.08859077114408,6917.822,95.436,540.518,538.856,0.0
52372.0,STARLINK-3796,PAYLOAD,2024-05-06 19:41:29,15.08849357,0.0001323,53.2165,325.259,96.0337,264.0806,7.3537e-05,8.83e-06,0.0,0 STARLINK-3796,1 52372U 22045AT  24127.82047629  .00000883  00000-0  73537-4 0  9994,2 52372  53.2165 325.2590 0001323  96.0337 264.0806 15.08849357114480,6917.852,95.437,540.632,538.802,0.0
52372.0,STARLINK-3796,PAYLOAD,2024-05-07 13:10:43,15.08840017,0.0001421,53.2169,321.9872,99.9508,260.1645,1.0079e-05,-1.28e-06,0.0,0 STARLINK-3796,1 52372U 22045AT  24128.54911980 -.00000128  00000-0  10079-4 0  9999,2 52372  53.2169 321.9872 0001421  99.9508 260.1645 15.08840017114595,6917.88,95.438,540.728,538.762,0.0
52372.0,STARLINK-3796,PAYLOAD,2024-05-07 19:32:16,15.08830434,0.0001248,53.2168,320.7958,100.6402,259.4731,-0.00015279,-2.718e-05,0.0,0 STARLINK-3796,1 52372U 22045AT  24128.81408509 -.00002718  00000-0 -15279-3 0  9991,2 52372  53.2168 320.7958 0001248 100.6402 259.4731 15.08830434114630,6917.91,95.438,540.638,538.911,0.0
52372.0,STARLINK-3796,PAYLOAD,2024-05-08 19:23:04,15.08840572,0.0001098,53.2159,316.3373,87.8711,272.2406,0.00017714,2.533e-05,0.0,0 STARLINK-3796,1 52372U 22045AT  24129.80768535  .00002533  00000-0  17714-3 0  9998,2 52372  53.2159 316.3373 0001098  87.8711 272.2406 15.08840572114786,6917.879,95.438,540.503,538.984,0.0
52372.0,STARLINK-3796,PAYLOAD,2024-05-09 04:55:22,15.0885484,0.0001117,53.2167,314.5522,86.8547,273.2573,0.00033045,4.977e-05,0.0,0 STARLINK-3796,1 52372U 22045AT  24130.20511834  .00004977  00000-0  33045-3 0  9991,2 52372  53.2167 314.5522 0001117  86.8547 273.2573 15.08854840114845,6917.835,95.437,540.473,538.927,0.0
52372.0,STARLINK-3796,PAYLOAD,2024-05-09 17:38:28,15.08838321,0.0001099,53.2161,312.1754,88.2938,271.818,0.00023057,3.383e-05,0.0,0 STARLINK-3796,1 52372U 22045AT  24130.73504934  .00003383  00000-0  23057-3 0  9994,2 52372  53.2161 312.1754 0001099  88.2938 271.8180 15.08838321114922,6917.886,95.438,540.511,538.99,0.0
52372.0,STARLINK-3796,PAYLOAD,2024-05-10 04:46:09,15.08859954,0.0001361,53.2179,310.0988,111.9034,248.2103,0.00053992,8.32e-05,0.0,0 STARLINK-3796,1 52372U 22045AT  24131.19872116  .00008320  00000-0  53992-3 0  9992,2 52372  53.2179 310.0988 0001361 111.9034 248.2103 15.08859954114995,6917.819,95.436,540.626,538.743,0.0
52372.0,STARLINK-3796,PAYLOAD,2024-05-10 20:40:01,15.0885662,0.0001355,53.2171,307.122,107.5403,252.5737,0.001538,0.00024285,0.0,0 STARLINK-3796,1 52372U 22045AT  24131.86112526  .00024285  00000-0  15380-2 0  9994,2 52372  53.2171 307.1220 0001355 107.5403 252.5737 15.08856620115097,6917.83,95.437,540.632,538.757,0.0
52372.0,STARLINK-3796,PAYLOAD,2024-05-11 18:55:24,15.08773906,0.00014,53.2167,302.9569,77.4256,282.6893,-0.0046057,-0.00072716,0.0,0 STARLINK-3796,1 52372U 22045AT  24132.78847827 -.00072716  00000-0 -46057-2 0  9994,2 52372  53.2167 302.9569 0001400  77.4256 282.6893 15.08773906115231,6918.082,95.442,540.916,538.979,0.0
52372.0,STARLINK-3796,PAYLOAD,2024-05-12 04:27:45,15.08730715,0.0001163,53.2158,301.1737,79.6639,280.4484,-0.0010698,-0.00017222,0.0,0 STARLINK-3796,1 52372U 22045AT  24133.18594552 -.00017222  00000-0 -10698-2 0  9996,2 52372  53.2158 301.1737 0001163  79.6639 280.4484 15.08730715115293,6918.214,95.444,540.884,539.275,0.0
52372.0,STARLINK-3796,PAYLOAD,2024-05-12 20:21:37,15.08851623,0.0001377,53.2165,298.2001,55.4343,304.6779,0.0012812,0.00020168,0.0,0 STARLINK-3796,1 52372U 22045AT  24133.84834842  .00020168  00000-0  12812-2 0  9999,2 52372  53.2165 298.2001 0001377  55.4343 304.6779 15.08851623115391,6917.845,95.437,540.662,538.757,0.0
52372.0,STARLINK-3796,PAYLOAD,2024-05-13 10:40:04,15.08866734,0.0001429,53.2164,295.5238,54.621,305.4915,0.0010211,0.00016012,0.0,0 STARLINK-3796,1 52372U 22045AT  24134.44450122  .00016012  00000-0  10211-2 0  9995,2 52372  53.2164 295.5238 0001429  54.6210 305.4915 15.08866734115484,6917.799,95.436,540.652,538.675,0.0
52372.0,STARLINK-3796,PAYLOAD,2024-05-13 17:01:36,15.08873434,0.0001447,53.2166,294.3342,54.4808,305.6319,0.00094029,0.00014722,0.0,0 STARLINK-3796,1 52372U 22045AT  24134.70945588  .00014722  00000-0  94029-3 0  9995,2 52372  53.2166 294.3342 0001447  54.4808 305.6319 15.08873434115520,6917.778,95.435,540.644,538.642,0.0
52372.0,STARLINK-3796,PAYLOAD,2024-05-14 04:09:18,15.08878872,0.0001465,53.2163,292.2524,53.5146,306.5981,0.00070651,0.00010986,0.0,0 STARLINK-3796,1 52372U 22045AT  24135.17312548  .00010986  00000-0  70651-3 0  9994,2 52372  53.2163 292.2524 0001465  53.5146 306.5981 15.08878872115594,6917.762,95.435,540.64,538.613,0.0
52372.0,STARLINK-3796,PAYLOAD,2024-05-14 16:52:23,15.08867554,0.0003195,53.2164,289.87,88.9219,271.2139,0.00057895,8.945e-05,0.0,0 STARLINK-3796,1 52372U 22045AT  24135.70304616  .00008945  00000-0  57895-3 0  9997,2 52372  53.2164 289.8700 0003195  88.9219 271.2139 15.08867554115675,6917.796,95.436,541.871,537.451,0.0
52372.0,STARLINK-3796,PAYLOAD,2024-05-15 13:32:24,15.08845429,0.0001115,53.2132,286.0024,56.2246,303.8852,0.00078361,0.00012207,0.0,0 STARLINK-3796,1 52372U 22045AT  24136.56417055  .00012207  00000-0  78361-3 0  9991,2 52372  53.2132 286.0024 0001115  56.2246 303.8852 15.08845429115802,6917.864,95.437,540.5,538.957,0.0
52372.0,STARLINK-3796,PAYLOAD,2024-05-15 18:18:33,15.08848688,0.0001208,53.2154,285.1107,62.2463,297.8652,0.00035276,5.332e-05,0.0,0 STARLINK-3796,1 52372U 22045AT  24136.76288920  .00005332  00000-0  35276-3 0  9999,2 52372  53.2154 285.1107 0001208  62.2463 297.8652 15.08848688115832,6917.854,95.437,540.555,538.883,0.0
52372.0,STARLINK-3796,PAYLOAD,2024-05-16 10:12:25,15.08840385,0.0001521,53.2178,282.138,102.1892,257.9271,0.00039783,6.049e-05,0.0,0 STARLINK-3796,1 52372U 22045AT  24137.42529280  .00006049  00000-0  39783-3 0  9993,2 52372  53.2178 282.1380 0001521 102.1892 257.9271 15.08840385115937,6917.879,95.438,540.796,538.692,0.0
52372.0,STARLINK-3796,PAYLOAD,2024-05-17 02:06:15,15.08867023,0.0001472,53.2175,279.1712,96.5046,263.6113,0.00088807,0.00013884,0.0,0 STARLINK-3796,1 52372U 22045AT  24138.08768392  .00013884  00000-0  88807-3 0  9991,2 52372  53.2175 279.1712 0001472  96.5046 263.6113 15.08867023116030,6917.798,95.436,540.681,538.644,0.0
52372.0,STARLINK-3796,PAYLOAD,2024-05-17 18:00:09,15.08797714,0.000195,53.2172,276.1942,89.5536,270.568,-0.00028795,-4.863e-05,0.0,0 STARLINK-3796,1 52372U 22045AT  24138.75010458 -.00004863  00000-0 -28795-3 0  9997,2 52372  53.2172 276.1942 0001950  89.5536 270.5680 15.08797714116132,6918.01,95.44,541.224,538.526,0.0
52372.0,STARLINK-3796,PAYLOAD,2024-05-18 13:04:46,15.08849529,0.000121,53.214,272.6251,97.3491,262.7638,0.000755,0.00011751,0.0,0 STARLINK-3796,1 52372U 22045AT  24139.54498108  .00011751  00000-0  75500-3 0  9995,2 52372  53.2140 272.6251 0001210  97.3491 262.7638 15.08849529116258,6917.851,95.437,540.553,538.879,0.0
52372.0,STARLINK-3796,PAYLOAD,2024-05-18 14:40:09,15.0886277,0.0001352,53.2151,272.3279,102.0133,258.1011,0.002274,0.00036111,0.0,0 STARLINK-3796,1 52372U 22045AT  24139.61121997  .00036111  00000-0  22740-2 0  9996,2 52372  53.2151 272.3279 0001352 102.0133 258.1011 15.08862770116269,6917.811,95.436,540.611,538.741,0.0
52372.0,STARLINK-3796,PAYLOAD,2024-05-18 17:50:55,15.08871359,0.0001283,53.2146,271.7319,89.1877,270.9262,0.0022672,0.0003601,0.0,0 STARLINK-3796,1 52372U 22045AT  24139.74369766  .00036010  00000-0  22672-2 0  9990,2 52372  53.2146 271.7319 0001283  89.1877 270.9262 15.08871359116289,6917.785,95.436,540.537,538.762,0.0
